EXO-0                   
1 59175U 23174DK  26068.71046781  .00011582  00000+0  36716-3 0  9992
2 59175  97.3864 148.9039 0009878 157.1125 203.0559 15.32821991129797
STARLINK-36477          
1 67355U 26003X   26068.51852322  .00031967  00000+0  11660-2 0  9998
2 67355  42.9992 228.3793 0001633 273.3518  86.7146 15.27584482  8791
